FENGYUN 1C DEB          
1 30149U 99025TE  17344.48048037  .00002590  00000-0  38895-3 0  9997
2 30149  99.0486 318.4741 0064373 290.9956 193.1805 14.74233431576957
FENGYUN 1C DEB          
1 30150U 99025TF  17344.23305844  .00000121  00000-0  13707-3 0  9997
2 30150  99.0043 223.8904 0152632 306.6885 175.1170 13.83119237550009
FENGYUN 1C DEB          
1 30151U 99025TG  17344.61583071  .00000260  00000-0  26143-3 0  9992
2 30151  99.3263  29.0680 0170431 152.4940 359.1732 13.80099352548670
FENGYUN 1C DEB          
1 30152U 99025TH  17344.41892954  .00001371  00000-0  11250-2 0  9990
2 30152  99.1266 233.5455 0187123  50.6286 311.1279 13.83260275548369
FENGYUN 1C DEB          
1 30153U 99025TJ  17344.63210668  .00000232  00000-0  25953-3 0  9992
2 30153 100.4610  18.5093 0210417 192.7323 286.5770 13.73695116545847
FENGYUN 1C DEB          
1 30154U 99025TK  17344.37472809  .00000288  00000-0  28678-3 0  9999
2 30154  98.4734 290.1606 0195220 217.8726 266.7072 13.77009664546701
FENGYUN 1C DEB          
1 30155U 99025TL  17344.60087135  .00000556  00000-0  61897-3 0  9998
2 30155  99.8481 345.3702 0267685 221.0451 137.0272 13.61729234539612
FENGYUN 1C DEB          
1 30156U 99025TM  17344.59281521  .00000347  00000-0  35852-3 0  9992
2 30156  98.9622  97.0104 0209544 115.3095 314.0615 13.72745302545022
FENGYUN 1C DEB          
1 30157U 99025TN  17344.08930222  .00000878  00000-0  40843-3 0  9991
2 30157  98.8955  19.8430 0049642  65.8536 323.8060 14.22518368563540
FENGYUN 1C DEB          
1 30158U 99025TP  17344.33817661  .00072349  00000-0  55223-2 0  9990
2 30158  98.9630 113.7410 0050777 214.8975 144.8913 15.00632707556314
FENGYUN 1C DEB          
1 30160U 99025TR  17344.55854493 -.00000245  00000-0 -26544-3 0  9994
2 30160  98.8965 247.3835 0353025 273.5900 210.7315 13.39339661532398
FENGYUN 1C DEB          
1 30161U 99025TS  17344.50429670  .00000603  00000-0  81263-3 0  9990
2 30161 100.5360 163.9750 0345083  63.6914   4.6239 13.42061166532689
FENGYUN 1C DEB          
1 30162U 99025TT  17344.45725286  .00000792  00000-0  10313-2 0  9993
2 30162  99.4746 138.0701 0336840  61.3504   9.4278 13.43452685533053
FENGYUN 1C DEB          
1 30163U 99025TU  17344.40737191  .00000938  00000-0  13289-2 0  9994
2 30163  98.6892 130.9978 0386571 342.0710  67.4918 13.32182511529593
FENGYUN 1C DEB          
1 30164U 99025TV  17344.42306374  .00002816  00000-0  19199-2 0  9995
2 30164  99.5200 150.8745 0418622 310.5805  45.9600 13.65566965533924
FENGYUN 1C DEB          
1 30167U 99025TY  17344.59496304  .00000131  00000-0  50057-4 0  9997
2 30167  98.9977 222.9332 0160347 182.8380 236.2799 14.40712350571965
FENGYUN 1C DEB          
1 30168U 99025TZ  17344.51776423  .00000862  00000-0  33572-3 0  9996
2 30168  97.4038  87.7329 0147432  55.6672 305.8362 14.25857698564668
FENGYUN 1C DEB          
1 30169U 99025UA  17344.58780274  .00000582  00000-0  17180-3 0  9999
2 30169  98.4317 106.7736 0337995 205.2933 219.9300 14.18944421559958
FENGYUN 1C DEB          
1 30170U 99025UB  17344.63593293  .00000234  00000-0  19284-3 0  9991
2 30170  99.0010  27.0993 0073151  84.5918  32.4107 13.97360618555538
FENGYUN 1C DEB          
1 30171U 99025UC  17344.47037961  .00000312  00000-0  22368-3 0  9993
2 30171  98.4521  46.8595 0189786 147.1630 214.1495 13.94962237554849
FENGYUN 1C DEB          
1 30172U 99025UD  17344.38620237  .00000794  00000-0  55634-3 0  9994
2 30172  99.0459 271.6282 0086797   2.8438 113.0012 13.99529815555095
FENGYUN 1C DEB          
1 30173U 99025UE  17344.59037139  .00000204  00000-0  16104-3 0  9996
2 30173  99.1835  17.5715 0097578 119.4905  33.2558 14.00388583555306
FENGYUN 1C DEB          
1 30174U 99025UF  17344.63111670  .00001256  00000-0  54013-3 0  9994
2 30174  98.8553  34.5512 0051246  38.5756 118.7172 14.25777322564087
FENGYUN 1C DEB          
1 30175U 99025UG  17344.56960597  .00000132  00000-0  15358-3 0  9998
2 30175  99.5518 325.8442 0149743   9.6024 107.3272 13.81680917549512
FENGYUN 1C DEB          
1 30177U 99025UJ  17344.29519885 -.00000191  00000-0 -10653-3 0  9990
2 30177  98.6350 238.4619 0475947 217.7064 267.3233 13.55353891537898
FENGYUN 1C DEB          
1 30178U 99025UK  17344.60258666 -.00000103  00000-0 -43605-4 0  9990
2 30178 102.2736 202.9340 0306037 245.9312 177.6470 13.50878103536199
FENGYUN 1C DEB          
1 30180U 99025UM  17344.45458906  .00002363  00000-0  32749-3 0  9999
2 30180  99.0361 326.9665 0069453 234.7407 124.7289 14.77527730577974
FENGYUN 1C DEB          
1 30181U 99025UN  17344.57879528  .00000686  00000-0  37823-3 0  9994
2 30181  99.0355   7.1531 0048688  65.5895  51.2592 14.14310743560648
FENGYUN 1C DEB          
1 30182U 99025UP  17344.52992106  .00000230  00000-0  19853-3 0  9996
2 30182  99.3576 342.1381 0076431  62.4353  60.3742 13.95392584555287
FENGYUN 1C DEB          
1 30183U 99025UQ  17344.60611194  .00000131  00000-0  10296-3 0  9993
2 30183  99.0962   2.8744 0028039 192.4002 279.3883 14.08157352559518
FENGYUN 1C DEB          
1 30190U 99025UX  17344.46488919  .00000774  00000-0  13597-3 0  9992
2 30190  98.9884 318.3422 0130857 156.5938 204.1294 14.65669001578881
FENGYUN 1C DEB          
1 30191U 99025UY  17344.60722677  .00000374  00000-0  88851-4 0  9993
2 30191  98.8273 197.3295 0140894 232.9884 195.1171 14.54721130576125
FENGYUN 1C DEB          
1 30193U 99025VA  17344.35284197  .00000353  00000-0  12316-3 0  9996
2 30193  98.8024 112.0869 0126172 163.7516 255.7838 14.37332776570782
FENGYUN 1C DEB          
1 30194U 99025VB  17344.63718997  .00001324  00000-0  51102-3 0  9993
2 30194 101.2613  25.3326 0056061 346.0263 133.1802 14.31873271565355
FENGYUN 1C DEB          
1 30196U 99025VD  17344.51701602 -.00000014  00000-0  12562-4 0  9991
2 30196  98.7027  71.1599 0085916 291.9753 134.3242 14.25017609567115
FENGYUN 1C DEB          
1 30197U 99025VE  17344.46941013  .00000374  00000-0  16630-3 0  9995
2 30197  99.0077 124.0511 0066450  62.9933 341.8140 14.27796642566894
FENGYUN 1C DEB          
1 30198U 99025VF  17344.55229154  .00000415  00000-0  16433-3 0  9998
2 30198  98.2444 187.6124 0146028 268.2329 144.5002 14.28231247566205
FENGYUN 1C DEB          
1 30199U 99025VG  17344.57869170  .00000429  00000-0  18659-3 0  9996
2 30199  98.6732  26.0063 0092211 277.7389 237.5875 14.26932508566200
FENGYUN 1C DEB          
1 30200U 99025VH  17344.23670145  .00000047  00000-0  38548-4 0  9990
2 30200  98.8670  84.6718 0151278 184.2245 175.7665 14.20032696564598
FENGYUN 1C DEB          
1 30201U 99025VJ  17344.22941092  .00000165  00000-0  10362-3 0  9996
2 30201  99.3660 256.1253 0030468 272.7457  87.0229 14.18320501563535
FENGYUN 1C DEB          
1 30202U 99025VK  17344.57091611  .00000862  00000-0  37531-3 0  9999
2 30202  98.8173  27.6514 0059788   4.0845 356.0810 14.25700776564465
FENGYUN 1C DEB          
1 30205U 99025VN  17344.61395112  .00000019  00000-0  49441-4 0  9998
2 30205  98.8510 207.1546 0122255 196.1201 228.8048 13.86150970551110
FENGYUN 1C DEB          
1 30206U 99025VP  17344.57936986  .00000140  00000-0  50694-4 0  9991
2 30206  98.4242  17.7079 0160245 258.4656  99.8505 14.41646625572163
FENGYUN 1C DEB          
1 30207U 99025VQ  17344.55264763  .00000067  00000-0  79172-4 0  9997
2 30207  98.4821 345.0864 0264163 135.0374 349.1085 13.77655657548044
FENGYUN 1C DEB          
1 30208U 99025VR  17344.63309330  .00000192  00000-0  11301-3 0  9995
2 30208  98.7626  16.2528 0036161  73.0979  42.6614 14.18553548563415
FENGYUN 1C DEB          
1 30209U 99025VS  17344.61644654  .00000166  00000-0  12110-3 0  9995
2 30209  98.8834  16.5025 0040334 233.9333 286.0798 14.08769559560000
FENGYUN 1C DEB          
1 30210U 99025VT  17344.41504001  .00000477  00000-0  33160-3 0  9999
2 30210  99.1516 299.7985 0059510 300.6237 179.9718 14.03038018557017
FENGYUN 1C DEB          
1 30212U 99025VV  17344.29125824 -.00000007  00000-0  28525-4 0  9999
2 30212  99.3245  93.8100 0097740 221.9404 137.4242 13.94628760554566
FENGYUN 1C DEB          
1 30213U 99025VW  17344.56588567  .00000506  00000-0  36293-3 0  9990
2 30213  99.2485 341.1585 0076884  40.9078  71.3418 14.00344068554936
FENGYUN 1C DEB          
1 30214U 99025VX  17344.59582148  .00000714  00000-0  38775-3 0  9991
2 30214  98.9369  24.9803 0027978 153.8087 358.6061 14.15378371560849
FENGYUN 1C DEB          
1 30216U 99025VZ  17344.43402215  .00001808  00000-0  33401-3 0  9998
2 30216  99.0750 315.9118 0084893 337.4907 176.0180 14.64638543575911
FENGYUN 1C DEB          
1 30217U 99025WA  17344.58359381  .00000079  00000-0  50650-4 0  9995
2 30217  98.6277  40.1334 0145542 339.2614  20.2695 14.21419178565062
FENGYUN 1C DEB          
1 30218U 99025WB  17343.97041104  .00000841  00000-0  49560-3 0  9993
2 30218  99.1436 350.6275 0090961 228.6930 160.9389 14.08751499557798
FENGYUN 1C DEB          
1 30221U 99025WE  17344.62845657  .00000163  00000-0  58215-4 0  9990
2 30221  98.9766 229.8873 0156050  65.6544 296.0846 14.41098383572506
FENGYUN 1C DEB          
1 30222U 99025WF  17344.62624503  .00000186  00000-0  14742-3 0  9997
2 30222  99.1808 357.6910 0037068 234.8970 238.2371 14.03293889558207
FENGYUN 1C DEB          
1 30224U 99025WH  17344.49761633  .00000024  00000-0  55720-4 0  9993
2 30224  99.3483 292.2222 0113374 227.6120 255.0339 13.87689066551775
FENGYUN 1C DEB          
1 30225U 99025WJ  17344.60605821  .00000056  00000-0  50466-4 0  9990
2 30225  98.9913   3.2773 0102564 118.1704   1.9697 14.13525304562121
FENGYUN 1C DEB          
1 30227U 99025WL  17344.38596774  .00001609  00000-0  60621-3 0  9991
2 30227  99.0762 133.3329 0002446 178.2455 235.1869 14.32944117564927
FENGYUN 1C DEB          
1 30228U 99025WM  17344.40878994  .00003898  00000-0  46438-3 0  9994
2 30228  98.9737 297.7151 0045904 259.0753 100.5291 14.84295644577201
